SL-16 R/B               
1 23405U 94077B   26181.26417821 -.00000025  00000+0  11809-4 0  9990
2 23405  70.9832 115.6513 0003704 315.8815  44.2012 14.15578041632169
ARIANE 40+ R/B          
1 23561U 95021B   26181.18805381  .00000263  00000+0  97489-4 0  9997
2 23561  98.4408 251.0750 0007275 155.9750 263.1861 14.39840283635435
SL-16 R/B               
1 23705U 95058B   26181.48857281 -.00000202  00000+0 -78836-4 0  9996
2 23705  71.0229 303.4314 0014554 302.1108  57.8602 14.15511390583815
SL-16 R/B               
1 24298U 96051B   26181.48706631  .00000140  00000+0  10224-3 0  9995
2 24298  70.7654 296.5019 0016618 317.7414  42.2424 14.12450647537576
ORBVIEW 2 (SEASTAR)     
1 24883U 97037A   26181.47189484  .00000242  00000+0  10033-3 0  9991
2 24883  98.8698 348.8597 0003332  89.8803 270.2764 14.35560207524659
SL-16 R/B               
1 25400U 98043G   26181.48329336  .00000035  00000+0  33539-4 0  9995
2 25400  98.8370 135.7573 0010737  51.6107 308.6036 14.26070679455065
SL-16 R/B               
1 25407U 98045B   26181.44418163  .00000243  00000+0  14687-3 0  9990
2 25407  71.0126 304.4487 0008845 224.7393 135.3017 14.16205885443069
ISS (ZARYA)             
1 25544U 98067A   26181.54075800  .00005426  00000+0  10481-3 0  9990
2 25544  51.6313 233.9888 0004287 251.0038 109.0487 15.49489460573826
CZ-4B R/B               
1 25732U 99025C   26181.56095028  .00000047  00000+0  43443-4 0  9999
2 25732  98.6477 223.0626 0037469  21.8856 135.4833 14.18285627404168
OKEAN-O                 
1 25860U 99039A   26181.18908829  .00000569  00000+0  81219-4 0  9998
2 25860  97.9310 239.8375 0001235  70.0939 290.0406 14.80482156451031
SL-16 R/B               
1 25861U 99039B   26181.53640303  .00000518  00000+0  72283-4 0  9993
2 25861  97.9833 240.3613 0013458 249.2335 110.7436 14.81858040453576
DELTA 2 R/B             
1 25876U 99041E   26181.48232798  .00001199  00000+0  23076-3 0  9992
2 25876  51.7621 210.6838 0501057 321.3100  35.2912 14.12040959378968
HELIOS 1B               
1 25977U 99064A   26181.29126342  .00001404  00000+0  15920-3 0  9993
2 25977  98.1603  86.8098 0002416  72.6759 287.4721 14.88040231702008
TERRA                   
1 25994U 99068A   26181.59606142  .00000404  00000+0  91157-4 0  9996
2 25994  97.9450 230.6103 0002600 153.0856   8.2894 14.61113534411563
SL-16 R/B               
1 26070U 00006B   26181.48881548  .00000131  00000+0  90614-4 0  9993
2 26070  71.0013 220.6566 0016398   1.8628 358.2553 14.15840386364529
TITAN 4B R/B            
1 26474U 00047B   26181.57091521  .00002699  00000+0  16890-3 0  9994
2 26474  67.9891  82.9001 0045870 273.6142  85.9762 15.10269125409950
ENVISAT                 
1 27386U 02009A   26181.46945000  .00000084  00000+0  40979-4 0  9997
2 27386  98.3839 132.4920 0001378  85.6382  25.4131 14.39067789275396
IDEFIX & ARIANE 42P R/B 
1 27422U 02021B   26181.41380997  .00000199  00000+0  92268-4 0  9990
2 27422  98.5943 118.7538 0010996 211.1317 148.9216 14.31087885260140
AQUA                    
1 27424U 02022A   26181.53643197  .00000768  00000+0  16248-3 0  9995
2 27424  98.4284 151.0865 0000698  73.0327 354.1844 14.62177796285225
CZ-4B R/B               
1 27432U 02024C   26181.55855064  .00000047  00000+0  46936-4 0  9994
2 27432  98.8693 234.2915 0051077  63.0494 102.3867 14.14566409245193
MIDORI II (ADEOS-II)    
1 27597U 02056A   26181.43833611  .00000233  00000+0  10945-3 0  9999
2 27597  98.7885 140.8112 0001992  58.8087 301.3290 14.29356413226401
H-2A R/B                
1 27601U 02056E   26181.49010682  .00000193  00000+0  82184-4 0  9996
2 27601  98.3318 137.6801 0069927 184.5579 288.2074 14.33827593230278
CZ-4B R/B               
1 28059U 03049C   26181.43386143  .00000268  00000+0  73120-4 0  9992
2 28059  98.6900 180.8079 0046966 247.1298 112.4936 14.55108137202998
CZ-2C R/B               
1 28222U 04012C   26181.20500988  .00106576  00000+0  52793-3 0  9996
2 28222  97.7080 258.4067 0010877 236.5510 123.4718 15.81637948221953
SL-16 R/B               
1 28353U 04021B   26180.88946356  .00000237  00000+0  14827-3 0  9990
2 28353  71.0009 357.0300 0006731 238.8876 121.1587 14.14608960138700
CZ-4B R/B               
1 28415U 04035C   26181.07612327  .00007492  00000+0  25110-3 0  9991
2 28415  97.3357 214.0052 0028909 289.7052  70.1071 15.30802892197091
CZ-2C R/B               
1 28480U 04046B   26181.30341130  .00000097  00000+0  51224-4 0  9992
2 28480  98.1935  89.2641 0139231 181.3232 178.7601 14.27029441124560
ARIANE 5 R/B            
1 28499U 04049H   26181.46743323  .00000545  00000+0  66574-4 0  9994
2 28499  98.2729 354.2340 0083512 346.4676  13.4298 14.85464260162531
CZ-2D R/B               
1 28738U 05024B   26181.53809905  .00062634  00000+0  49813-3 0  9994
2 28738  97.3472 201.6462 0000761 359.1009   1.0252 15.71039622157430
ALOS (DAICHI)           
1 28931U 06002A   26181.43129114  .00001058  00000+0  18444-3 0  9991
2 28931  98.1330 136.9579 0000959  60.7063 299.4238 14.70076296 90046
