OBJECT_NAME,OBJECT_ID,EPOCH,MEAN_MOTION,ECCENTRICITY,INCLINATION,RA_OF_ASC_NODE,ARG_OF_PERICENTER,MEAN_ANOMALY,EPHEMERIS_TYPE,CLASSIFICATION_TYPE,NORAD_CAT_ID,ELEMENT_SET_NO,REV_AT_EPOCH,BSTAR,MEAN_MOTION_DOT,MEAN_MOTION_DDOT
SL-16 R/B,1994-077B,2026-06-30T06:20:24.997344,14.15578041,.00037042,70.9832,115.6513,315.8815,44.2012,0,U,23405,999,63216,.11808833E-4,-.25E-6,0
ARIANE 40+ R/B,1995-021B,2026-06-30T04:30:47.849184,14.39840283,.0007275,98.4408,251.0750,155.9750,263.1861,0,U,23561,999,63543,.97488633E-4,.263E-5,0
SL-16 R/B,1995-058B,2026-06-30T11:43:32.690784,14.15511390,.00145542,71.0229,303.4314,302.1108,57.8602,0,U,23705,999,58381,-.78835785E-4,-.202E-5,0
SL-16 R/B,1996-051B,2026-06-30T11:41:22.529184,14.12450647,.00166187,70.7654,296.5019,317.7414,42.2424,0,U,24298,999,53757,.1022439E-3,.14E-5,0
ORBVIEW 2 (SEASTAR),1997-037A,2026-06-30T11:19:31.714176,14.35560207,.00033327,98.8698,348.8597,89.8803,270.2764,0,U,24883,999,52465,.10032777E-3,.242E-5,0
SL-16 R/B,1998-043G,2026-06-30T11:35:56.546304,14.26070679,.00107375,98.8370,135.7573,51.6107,308.6036,0,U,25400,999,45506,.3353909E-4,.35E-6,0
SL-16 R/B,1998-045B,2026-06-30T10:39:37.292832,14.16205885,.00088451,71.0126,304.4487,224.7393,135.3017,0,U,25407,999,44306,.1468741E-3,.243E-5,0
ISS (ZARYA),1998-067A,2026-06-30T12:58:41.491200,15.49489460,.00042879,51.6313,233.9888,251.0038,109.0487,0,U,25544,999,57382,.10480906E-3,.5426E-4,0
CZ-4B R/B,1999-025C,2026-06-30T13:27:46.104192,14.18285627,.00374695,98.6477,223.0626,21.8856,135.4833,0,U,25732,999,40416,.43443441E-4,.47E-6,0
OKEAN-O,1999-039A,2026-06-30T04:32:17.228256,14.80482156,.00012354,97.9310,239.8375,70.0939,290.0406,0,U,25860,999,45103,.81218778E-4,.569E-5,0
SL-16 R/B,1999-039B,2026-06-30T12:52:25.221792,14.81858040,.0013458,97.9833,240.3613,249.2335,110.7436,0,U,25861,999,45357,.72283019E-4,.518E-5,0
DELTA 2 R/B,1999-041E,2026-06-30T11:34:33.137472,14.12040959,.05010571,51.7621,210.6838,321.3100,35.2912,0,U,25876,999,37896,.23075768E-3,.1199E-4,0
HELIOS 1B,1999-064A,2026-06-30T06:59:25.159488,14.88040231,.00024164,98.1603,86.8098,72.6759,287.4721,0,U,25977,999,70200,.15919551E-3,.1404E-4,0
TERRA,1999-068A,2026-06-30T14:18:19.706688,14.61113534,.00026005,97.9450,230.6103,153.0856,8.2894,0,U,25994,999,41156,.9115705E-4,.404E-5,0
SL-16 R/B,2000-006B,2026-06-30T11:43:53.657472,14.15840386,.00163982,71.0013,220.6566,1.8628,358.2553,0,U,26070,999,36452,.90613785E-4,.131E-5,0
TITAN 4B R/B,2000-047B,2026-06-30T13:42:07.074144,15.10269125,.00458701,67.9891,82.9001,273.6142,85.9762,0,U,26474,999,40995,.16889675E-3,.2699E-4,0
ENVISAT,2002-009A,2026-06-30T11:16:00.480000,14.39067789,.00013784,98.3839,132.4920,85.6382,25.4131,0,U,27386,999,27539,.40979232E-4,.84E-6,0
IDEFIX & ARIANE 42P R/B,2002-021B,2026-06-30T09:55:53.181408,14.31087885,.00109961,98.5943,118.7538,211.1317,148.9216,0,U,27422,999,26014,.92267767E-4,.199E-5,0
AQUA,2002-022A,2026-06-30T12:52:27.722208,14.62177796,.00006985,98.4284,151.0865,73.0327,354.1844,0,U,27424,999,28522,.16248342E-3,.768E-5,0
CZ-4B R/B,2002-024C,2026-06-30T13:24:18.775296,14.14566409,.00510772,98.8693,234.2915,63.0494,102.3867,0,U,27432,999,24519,.46935802E-4,.47E-6,0
MIDORI II (ADEOS-II),2002-056A,2026-06-30T10:31:12.239904,14.29356413,.00019929,98.7885,140.8112,58.8087,301.3290,0,U,27597,999,22640,.10944878E-3,.233E-5,0
H-2A R/B,2002-056E,2026-06-30T11:45:45.229248,14.33827593,.00699271,98.3318,137.6801,184.5579,288.2074,0,U,27601,999,23027,.82184068E-4,.193E-5,0
CZ-4B R/B,2003-049C,2026-06-30T10:24:45.627552,14.55108137,.00469665,98.6900,180.8079,247.1298,112.4936,0,U,28059,999,20299,.73119712E-4,.268E-5,0
CZ-2C R/B,2004-012C,2026-06-30T04:55:12.853632,15.81637948,.00108776,97.7080,258.4067,236.5510,123.4718,0,U,28222,999,22195,.5279342E-3,.106576E-2,0
SL-16 R/B,2004-021B,2026-06-29T21:20:49.651584,14.14608960,.00067319,71.0009,357.0300,238.8876,121.1587,0,U,28353,999,13870,.14827288E-3,.237E-5,0
CZ-4B R/B,2004-035C,2026-06-30T01:49:37.050528,15.30802892,.0028909,97.3357,214.0052,289.7052,70.1071,0,U,28415,999,19709,.25109783E-3,.7492E-4,0
CZ-2C R/B,2004-046B,2026-06-30T07:16:54.736320,14.27029441,.01392318,98.1935,89.2641,181.3232,178.7601,0,U,28480,999,12456,.51224183E-4,.97E-6,0
ARIANE 5 R/B,2004-049H,2026-06-30T11:13:06.231072,14.85464260,.00835121,98.2729,354.2340,346.4676,13.4298,0,U,28499,999,16253,.66573757E-4,.545E-5,0
CZ-2D R/B,2005-024B,2026-06-30T12:54:51.757920,15.71039622,.00007615,97.3472,201.6462,359.1009,1.0252,0,U,28738,999,15743,.49812539E-3,.62634E-3,0
ALOS (DAICHI),2006-002A,2026-06-30T10:21:03.554496,14.70076296,.00009596,98.1330,136.9579,60.7063,299.4238,0,U,28931,999,9004,.18444089E-3,.1058E-4,0
